ONEWEB-0568             
1 56062U 23043S   25230.54303920 -.00000004  00000+0 -45017-4 0  9995
2 56062  87.9028 289.0921 0002031 105.3186 254.8169 13.16594068119151
ONEWEB-0574             
1 56063U 23043T   25230.48197091  .00000010  00000+0 -68217-5 0  9993
2 56063  87.9254 304.3664 0002194  98.3971 261.7412 13.21824248118284
ONEWEB-0575             
1 56064U 23043U   25230.53669667  .00000205  00000+0  50175-3 0  9990
2 56064  87.9021 289.0990 0002211  99.7687 260.3694 13.16591818119148
ONEWEB-0576             
1 56065U 23043V   25230.44170378 -.00000018  00000+0 -81094-4 0  9996
2 56065  87.9031 289.1103 0002057 102.4788 257.6573 13.16594340119125
ONEWEB-0577             
1 56066U 23043W   25230.52403040 -.00000027  00000+0 -10328-3 0  9992
2 56066  87.9031 289.0952 0002666 102.1083 258.0347 13.16594832119162
ONEWEB-0578             
1 56067U 23043X   25230.46934924  .00000049  00000+0  86262-4 0  9999
2 56067  87.9253 304.3792 0002027 105.1574 254.9784 13.21823830118248
ONEWEB-0579             
1 56068U 23043Y   25230.45989404  .00000064  00000+0  12303-3 0  9993
2 56068  87.9253 304.3671 0002042  90.2237 269.9131 13.21824851118259
ONEWEB-0581             
1 56069U 23043Z   25230.53036614  .00000008  00000+0 -13827-4 0  9991
2 56069  87.9015 289.1174 0002439  94.9384 265.2025 13.16592374119133
ONEWEB-0609             
1 56070U 23043AA  25230.47558347  .00000121  00000+0  28649-3 0  9990
2 56070  87.9080 319.6003 0001856  98.6847 261.4494 13.15547342116638
ONEWEB-0613             
1 56071U 23043AB  25230.54688883  .00000035  00000+0  58371-4 0  9998
2 56071  87.9085 319.5997 0001949  91.6230 268.5124 13.15546592116642
ONEWEB-0630             
1 56072U 23043AC  25230.54213803  .00000064  00000+0  13561-3 0  9998
2 56072  87.9075 319.5758 0001779  89.3698 270.7637 13.15548081116638
ONEWEB-0632             
1 56073U 23043AD  25230.53738545  .00000075  00000+0  16438-3 0  9991
2 56073  87.9075 319.5969 0002095  96.2750 263.8619 13.15548293116639
ONEWEB-0633             
1 56074U 23043AE  25230.53105414  .00000123  00000+0  29370-3 0  9998
2 56074  87.9068 319.5626 0001641  89.0686 271.0633 13.15548405116616
ONEWEB-0634             
1 56075U 23043AF  25230.51678205 -.00000010  00000+0 -61533-4 0  9995
2 56075  87.9081 319.6057 0001655 104.1226 256.0088 13.15547966116602
ONEWEB-0635             
1 56076U 23043AG  25230.28386087 -.00000048  00000+0 -16213-3 0  9999
2 56076  87.9053 319.6206 0002287  98.2636 261.8754 13.15549231116609
ONEWEB-0636             
1 56077U 23043AH  25230.50410891 -.00000144  00000+0 -41778-3 0  9997
2 56077  87.9062 319.5911 0002179  98.4569 261.6808 13.15547474116615
ONEWEB-0637             
1 56078U 23043AJ  25230.49778261 -.00000102  00000+0 -30504-3 0  9993
2 56078  87.9067 319.6046 0002164 107.4446 252.6921 13.15549782116632
