[{"OBJECT_NAME":"ONEWEB-0568","OBJECT_ID":"2023-043S","EPOCH":"2025-08-18T13:01:58.586880","MEAN_MOTION":13.16594068,"ECCENTRICITY":0.0002031,"INCLINATION":87.9028,"RA_OF_ASC_NODE":289.0921,"ARG_OF_PERICENTER":105.3186,"MEAN_ANOMALY":254.8169,"EPHEMERIS_TYPE":0,"CLASSIFICATION_TYPE":"U","NORAD_CAT_ID":56062,"ELEMENT_SET_NO":999,"REV_AT_EPOCH":11915,"BSTAR":-4.5017e-5,"MEAN_MOTION_DOT":-4.0e-8,"MEAN_MOTION_DDOT":0},{"OBJECT_NAME":"ONEWEB-0574","OBJECT_ID":"2023-043T","EPOCH":"2025-08-18T11:34:02.286624","MEAN_MOTION":13.21824248,"ECCENTRICITY":0.0002194,"INCLINATION":87.9254,"RA_OF_ASC_NODE":304.3664,"ARG_OF_PERICENTER":98.3971,"MEAN_ANOMALY":261.7412,"EPHEMERIS_TYPE":0,"CLASSIFICATION_TYPE":"U","NORAD_CAT_ID":56063,"ELEMENT_SET_NO":999,"REV_AT_EPOCH":11828,"BSTAR":-6.8217e-6,"MEAN_MOTION_DOT":1.0e-7,"MEAN_MOTION_DDOT":0},{"OBJECT_NAME":"ONEWEB-0575","OBJECT_ID":"2023-043U","EPOCH":"2025-08-18T12:52:50.592288","MEAN_MOTION":13.16591818,"ECCENTRICITY":0.0002211,"INCLINATION":87.9021,"RA_OF_ASC_NODE":289.099,"ARG_OF_PERICENTER":99.7687,"MEAN_ANOMALY":260.3694,"EPHEMERIS_TYPE":0,"CLASSIFICATION_TYPE":"U","NORAD_CAT_ID":56064,"ELEMENT_SET_NO":999,"REV_AT_EPOCH":11914,"BSTAR":0.00050175,"MEAN_MOTION_DOT":2.05e-6,"MEAN_MOTION_DDOT":0},{"OBJECT_NAME":"ONEWEB-0576","OBJECT_ID":"2023-043V","EPOCH":"2025-08-18T10:36:03.206592","MEAN_MOTION":13.1659434,"ECCENTRICITY":0.0002057,"INCLINATION":87.9031,"RA_OF_ASC_NODE":289.1103,"ARG_OF_PERICENTER":102.4788,"MEAN_ANOMALY":257.6573,"EPHEMERIS_TYPE":0,"CLASSIFICATION_TYPE":"U","NORAD_CAT_ID":56065,"ELEMENT_SET_NO":999,"REV_AT_EPOCH":11912,"BSTAR":-8.1094e-5,"MEAN_MOTION_DOT":-1.8e-7,"MEAN_MOTION_DDOT":0},{"OBJECT_NAME":"ONEWEB-0577","OBJECT_ID":"2023-043W","EPOCH":"2025-08-18T12:34:36.226560","MEAN_MOTION":13.16594832,"ECCENTRICITY":0.0002666,"INCLINATION":87.9031,"RA_OF_ASC_NODE":289.0952,"ARG_OF_PERICENTER":102.1083,"MEAN_ANOMALY":258.0347,"EPHEMERIS_TYPE":0,"CLASSIFICATION_TYPE":"U","NORAD_CAT_ID":56066,"ELEMENT_SET_NO":999,"REV_AT_EPOCH":11916,"BSTAR":-0.00010328,"MEAN_MOTION_DOT":-2.7e-7,"MEAN_MOTION_DDOT":0},{"OBJECT_NAME":"ONEWEB-0578","OBJECT_ID":"2023-043X","EPOCH":"2025-08-18T11:15:51.774336","MEAN_MOTION":13.2182383,"ECCENTRICITY":0.0002027,"INCLINATION":87.9253,"RA_OF_ASC_NODE":304.3792,"ARG_OF_PERICENTER":105.1574,"MEAN_ANOMALY":254.9784,"EPHEMERIS_TYPE":0,"CLASSIFICATION_TYPE":"U","NORAD_CAT_ID":56067,"ELEMENT_SET_NO":999,"REV_AT_EPOCH":11824,"BSTAR":8.6262e-5,"MEAN_MOTION_DOT":4.9e-7,"MEAN_MOTION_DDOT":0},{"OBJECT_NAME":"ONEWEB-0579","OBJECT_ID":"2023-043Y","EPOCH":"2025-08-18T11:02:14.845056","MEAN_MOTION":13.21824851,"ECCENTRICITY":0.0002042,"INCLINATION":87.9253,"RA_OF_ASC_NODE":304.3671,"ARG_OF_PERICENTER":90.2237,"MEAN_ANOMALY":269.9131,"EPHEMERIS_TYPE":0,"CLASSIFICATION_TYPE":"U","NORAD_CAT_ID":56068,"ELEMENT_SET_NO":999,"REV_AT_EPOCH":11825,"BSTAR":0.00012303,"MEAN_MOTION_DOT":6.4e-7,"MEAN_MOTION_DDOT":0},{"OBJECT_NAME":"ONEWEB-0581","OBJECT_ID":"2023-043Z","EPOCH":"2025-08-18T12:43:43.634496","MEAN_MOTION":13.16592374,"ECCENTRICITY":0.0002439,"INCLINATION":87.9015,"RA_OF_ASC_NODE":289.1174,"ARG_OF_PERICENTER":94.9384,"MEAN_ANOMALY":265.2025,"EPHEMERIS_TYPE":0,"CLASSIFICATION_TYPE":"U","NORAD_CAT_ID":56069,"ELEMENT_SET_NO":999,"REV_AT_EPOCH":11913,"BSTAR":-1.3827e-5,"MEAN_MOTION_DOT":8.0e-8,"MEAN_MOTION_DDOT":0},{"OBJECT_NAME":"ONEWEB-0609","OBJECT_ID":"2023-043AA","EPOCH":"2025-08-18T11:24:50.411808","MEAN_MOTION":13.15547342,"ECCENTRICITY":0.0001856,"INCLINATION":87.908,"RA_OF_ASC_NODE":319.6003,"ARG_OF_PERICENTER":98.6847,"MEAN_ANOMALY":261.4494,"EPHEMERIS_TYPE":0,"CLASSIFICATION_TYPE":"U","NORAD_CAT_ID":56070,"ELEMENT_SET_NO":999,"REV_AT_EPOCH":11663,"BSTAR":0.00028649,"MEAN_MOTION_DOT":1.21e-6,"MEAN_MOTION_DDOT":0},{"OBJECT_NAME":"ONEWEB-0613","OBJECT_ID":"2023-043AB","EPOCH":"2025-08-18T13:07:31.194912","MEAN_MOTION":13.15546592,"ECCENTRICITY":0.0001949,"INCLINATION":87.9085,"RA_OF_ASC_NODE":319.5997,"ARG_OF_PERICENTER":91.623,"MEAN_ANOMALY":268.5124,"EPHEMERIS_TYPE":0,"CLASSIFICATION_TYPE":"U","NORAD_CAT_ID":56071,"ELEMENT_SET_NO":999,"REV_AT_EPOCH":11664,"BSTAR":5.8371e-5,"MEAN_MOTION_DOT":3.5e-7,"MEAN_MOTION_DDOT":0},{"OBJECT_NAME":"ONEWEB-0630","OBJECT_ID":"2023-043AC","EPOCH":"2025-08-18T13:00:40.725792","MEAN_MOTION":13.15548081,"ECCENTRICITY":0.0001779,"INCLINATION":87.9075,"RA_OF_ASC_NODE":319.5758,"ARG_OF_PERICENTER":89.3698,"MEAN_ANOMALY":270.7637,"EPHEMERIS_TYPE":0,"CLASSIFICATION_TYPE":"U","NORAD_CAT_ID":56072,"ELEMENT_SET_NO":999,"REV_AT_EPOCH":11663,"BSTAR":0.00013561,"MEAN_MOTION_DOT":6.4e-7,"MEAN_MOTION_DDOT":0},{"OBJECT_NAME":"ONEWEB-0632","OBJECT_ID":"2023-043AD","EPOCH":"2025-08-18T12:53:50.102880","MEAN_MOTION":13.15548293,"ECCENTRICITY":0.0002095,"INCLINATION":87.9075,"RA_OF_ASC_NODE":319.5969,"ARG_OF_PERICENTER":96.275,"MEAN_ANOMALY":263.8619,"EPHEMERIS_TYPE":0,"CLASSIFICATION_TYPE":"U","NORAD_CAT_ID":56073,"ELEMENT_SET_NO":999,"REV_AT_EPOCH":11663,"BSTAR":0.00016438,"MEAN_MOTION_DOT":7.5e-7,"MEAN_MOTION_DDOT":0},{"OBJECT_NAME":"ONEWEB-0633","OBJECT_ID":"2023-043AE","EPOCH":"2025-08-18T12:44:43.077696","MEAN_MOTION":13.15548405,"ECCENTRICITY":0.0001641,"INCLINATION":87.9068,"RA_OF_ASC_NODE":319.5626,"ARG_OF_PERICENTER":89.0686,"MEAN_ANOMALY":271.0633,"EPHEMERIS_TYPE":0,"CLASSIFICATION_TYPE":"U","NORAD_CAT_ID":56074,"ELEMENT_SET_NO":999,"REV_AT_EPOCH":11661,"BSTAR":0.0002937,"MEAN_MOTION_DOT":1.23e-6,"MEAN_MOTION_DDOT":0},{"OBJECT_NAME":"ONEWEB-0634","OBJECT_ID":"2023-043AF","EPOCH":"2025-08-18T12:24:09.969120","MEAN_MOTION":13.15547966,"ECCENTRICITY":0.0001655,"INCLINATION":87.9081,"RA_OF_ASC_NODE":319.6057,"ARG_OF_PERICENTER":104.1226,"MEAN_ANOMALY":256.0088,"EPHEMERIS_TYPE":0,"CLASSIFICATION_TYPE":"U","NORAD_CAT_ID":56075,"ELEMENT_SET_NO":999,"REV_AT_EPOCH":11660,"BSTAR":-6.1533e-5,"MEAN_MOTION_DOT":-1.0e-7,"MEAN_MOTION_DDOT":0},{"OBJECT_NAME":"ONEWEB-0635","OBJECT_ID":"2023-043AG","EPOCH":"2025-08-18T06:48:45.579168","MEAN_MOTION":13.15549231,"ECCENTRICITY":0.0002287,"INCLINATION":87.9053,"RA_OF_ASC_NODE":319.6206,"ARG_OF_PERICENTER":98.2636,"MEAN_ANOMALY":261.8754,"EPHEMERIS_TYPE":0,"CLASSIFICATION_TYPE":"U","NORAD_CAT_ID":56076,"ELEMENT_SET_NO":999,"REV_AT_EPOCH":11660,"BSTAR":-0.00016213,"MEAN_MOTION_DOT":-4.8e-7,"MEAN_MOTION_DDOT":0},{"OBJECT_NAME":"ONEWEB-0636","OBJECT_ID":"2023-043AH","EPOCH":"2025-08-18T12:05:55.009824","MEAN_MOTION":13.15547474,"ECCENTRICITY":0.0002179,"INCLINATION":87.9062,"RA_OF_ASC_NODE":319.5911,"ARG_OF_PERICENTER":98.4569,"MEAN_ANOMALY":261.6808,"EPHEMERIS_TYPE":0,"CLASSIFICATION_TYPE":"U","NORAD_CAT_ID":56077,"ELEMENT_SET_NO":999,"REV_AT_EPOCH":11661,"BSTAR":-0.00041778,"MEAN_MOTION_DOT":-1.44e-6,"MEAN_MOTION_DDOT":0},{"OBJECT_NAME":"ONEWEB-0637","OBJECT_ID":"2023-043AJ","EPOCH":"2025-08-18T11:56:48.417504","MEAN_MOTION":13.15549782,"ECCENTRICITY":0.0002164,"INCLINATION":87.9067,"RA_OF_ASC_NODE":319.6046,"ARG_OF_PERICENTER":107.4446,"MEAN_ANOMALY":252.6921,"EPHEMERIS_TYPE":0,"CLASSIFICATION_TYPE":"U","NORAD_CAT_ID":56078,"ELEMENT_SET_NO":999,"REV_AT_EPOCH":11663,"BSTAR":-0.00030504,"MEAN_MOTION_DOT":-1.02e-6,"MEAN_MOTION_DDOT":0}]
